[
  {
    "OBJECT_NAME": "NOAA 1",
    "OBJECT_ID": "1970-106A",
    "EPOCH": "2025-06-28T13:47:03.166944",
    "MEAN_MOTION": 12.54043623,
    "ECCENTRICITY": 0.0031084,
    "INCLINATION": 101.3884,
    "RA_OF_ASC_NODE": 223.9145,
    "ARG_OF_PERICENTER": 320.761,
    "MEAN_ANOMALY": 165.7468,
    "EPHEMERIS_TYPE": 0,
    "CLASSIFICATION_TYPE": "U",
    "NORAD_CAT_ID": 4793,
    "ELEMENT_SET_NO": 999,
    "REV_AT_EPOCH": 49636,
    "BSTAR": 8.165e-05,
    "MEAN_MOTION_DOT": -3e-07,
    "MEAN_MOTION_DDOT": 0
  },
  {
    "OBJECT_NAME": "NOAA 2 (ITOS-D)",
    "OBJECT_ID": "1972-082A",
    "EPOCH": "2025-06-28T13:44:47.639904",
    "MEAN_MOTION": 12.5320173,
    "ECCENTRICITY": 0.0004479,
    "INCLINATION": 102.0205,
    "RA_OF_ASC_NODE": 189.0293,
    "ARG_OF_PERICENTER": 121.5068,
    "MEAN_ANOMALY": 353.729,
    "EPHEMERIS_TYPE": 0,
    "CLASSIFICATION_TYPE": "U",
    "NORAD_CAT_ID": 6235,
    "ELEMENT_SET_NO": 999,
    "REV_AT_EPOCH": 41065,
    "BSTAR": 5.7584e-05,
    "MEAN_MOTION_DOT": -3.7e-07,
    "MEAN_MOTION_DDOT": 0
  },
  {
    "OBJECT_NAME": "NOAA 3",
    "OBJECT_ID": "1973-086A",
    "EPOCH": "2025-06-28T14:59:43.788768",
    "MEAN_MOTION": 12.40383349,
    "ECCENTRICITY": 0.0006887,
    "INCLINATION": 102.2882,
    "RA_OF_ASC_NODE": 185.127,
    "ARG_OF_PERICENTER": 56.8172,
    "MEAN_ANOMALY": 51.9739,
    "EPHEMERIS_TYPE": 0,
    "CLASSIFICATION_TYPE": "U",
    "NORAD_CAT_ID": 6920,
    "ELEMENT_SET_NO": 999,
    "REV_AT_EPOCH": 33806,
    "BSTAR": 5.8505e-05,
    "MEAN_MOTION_DOT": -3.8e-07,
    "MEAN_MOTION_DDOT": 0
  },
  {
    "OBJECT_NAME": "NOAA 4",
    "OBJECT_ID": "1974-089A",
    "EPOCH": "2025-06-28T15:06:51.358176",
    "MEAN_MOTION": 12.53195162,
    "ECCENTRICITY": 0.0009235,
    "INCLINATION": 102.0029,
    "RA_OF_ASC_NODE": 183.6582,
    "ARG_OF_PERICENTER": 148.496,
    "MEAN_ANOMALY": 323.6858,
    "EPHEMERIS_TYPE": 0,
    "CLASSIFICATION_TYPE": "U",
    "NORAD_CAT_ID": 7529,
    "ELEMENT_SET_NO": 999,
    "REV_AT_EPOCH": 31523,
    "BSTAR": 1.3243e-05,
    "MEAN_MOTION_DOT": -4.4e-07,
    "MEAN_MOTION_DDOT": 0
  },
  {
    "OBJECT_NAME": "NOAA 5",
    "OBJECT_ID": "1976-077A",
    "EPOCH": "2025-06-28T14:11:48.244704",
    "MEAN_MOTION": 12.37818884,
    "ECCENTRICITY": 0.000926,
    "INCLINATION": 102.2581,
    "RA_OF_ASC_NODE": 159.1559,
    "ARG_OF_PERICENTER": 267.5938,
    "MEAN_ANOMALY": 204.0621,
    "EPHEMERIS_TYPE": 0,
    "CLASSIFICATION_TYPE": "U",
    "NORAD_CAT_ID": 9057,
    "ELEMENT_SET_NO": 999,
    "REV_AT_EPOCH": 21072,
    "BSTAR": 0.00012871,
    "MEAN_MOTION_DOT": -2.9e-07,
    "MEAN_MOTION_DDOT": 0
  },
  {
    "OBJECT_NAME": "TIROS N",
    "OBJECT_ID": "1978-096A",
    "EPOCH": "2025-06-28T14:13:07.152960",
    "MEAN_MOTION": 14.19200386,
    "ECCENTRICITY": 0.0010441,
    "INCLINATION": 98.4861,
    "RA_OF_ASC_NODE": 211.0793,
    "ARG_OF_PERICENTER": 180.4223,
    "MEAN_ANOMALY": 179.6947,
    "EPHEMERIS_TYPE": 0,
    "CLASSIFICATION_TYPE": "U",
    "NORAD_CAT_ID": 11060,
    "ELEMENT_SET_NO": 999,
    "REV_AT_EPOCH": 62859,
    "BSTAR": 6.05e-05,
    "MEAN_MOTION_DOT": 8.5e-07,
    "MEAN_MOTION_DDOT": 0
  },
  {
    "OBJECT_NAME": "NOAA 6",
    "OBJECT_ID": "1979-057A",
    "EPOCH": "2025-06-28T14:13:31.552320",
    "MEAN_MOTION": 14.35192017,
    "ECCENTRICITY": 0.0009098,
    "INCLINATION": 98.598,
    "RA_OF_ASC_NODE": 205.9632,
    "ARG_OF_PERICENTER": 221.1742,
    "MEAN_ANOMALY": 138.8757,
    "EPHEMERIS_TYPE": 0,
    "CLASSIFICATION_TYPE": "U",
    "NORAD_CAT_ID": 11416,
    "ELEMENT_SET_NO": 999,
    "REV_AT_EPOCH": 40023,
    "BSTAR": 8.4922e-05,
    "MEAN_MOTION_DOT": 1.98e-06,
    "MEAN_MOTION_DDOT": 0
  },
  {
    "OBJECT_NAME": "NOAA 7",
    "OBJECT_ID": "1981-059A",
    "EPOCH": "2025-06-28T14:14:45.376800",
    "MEAN_MOTION": 14.17709931,
    "ECCENTRICITY": 0.0011182,
    "INCLINATION": 98.8429,
    "RA_OF_ASC_NODE": 244.2402,
    "ARG_OF_PERICENTER": 194.3715,
    "MEAN_ANOMALY": 165.7143,
    "EPHEMERIS_TYPE": 0,
    "CLASSIFICATION_TYPE": "U",
    "NORAD_CAT_ID": 12553,
    "ELEMENT_SET_NO": 999,
    "REV_AT_EPOCH": 27464,
    "BSTAR": 3.6964e-05,
    "MEAN_MOTION_DOT": 3.1e-07,
    "MEAN_MOTION_DDOT": 0
  },
  {
    "OBJECT_NAME": "NOAA 8",
    "OBJECT_ID": "1983-022A",
    "EPOCH": "2025-06-28T13:55:59.135520",
    "MEAN_MOTION": 14.29639025,
    "ECCENTRICITY": 0.0014176,
    "INCLINATION": 98.7363,
    "RA_OF_ASC_NODE": 186.5526,
    "ARG_OF_PERICENTER": 208.9934,
    "MEAN_ANOMALY": 151.0461,
    "EPHEMERIS_TYPE": 0,
    "CLASSIFICATION_TYPE": "U",
    "NORAD_CAT_ID": 13923,
    "ELEMENT_SET_NO": 999,
    "REV_AT_EPOCH": 20054,
    "BSTAR": 4.2627e-05,
    "MEAN_MOTION_DOT": 6.4e-07,
    "MEAN_MOTION_DDOT": 0
  },
  {
    "OBJECT_NAME": "NOAA 9",
    "OBJECT_ID": "1984-123A",
    "EPOCH": "2025-06-28T15:58:24.042720",
    "MEAN_MOTION": 14.16930846,
    "ECCENTRICITY": 0.0013584,
    "INCLINATION": 99.1209,
    "RA_OF_ASC_NODE": 192.6206,
    "ARG_OF_PERICENTER": 271.3003,
    "MEAN_ANOMALY": 200.3869,
    "EPHEMERIS_TYPE": 0,
    "CLASSIFICATION_TYPE": "U",
    "NORAD_CAT_ID": 15427,
    "ELEMENT_SET_NO": 999,
    "REV_AT_EPOCH": 9359,
    "BSTAR": 5.6099e-05,
    "MEAN_MOTION_DOT": 6.6e-07,
    "MEAN_MOTION_DDOT": 0
  },
  {
    "OBJECT_NAME": "NOAA 10",
    "OBJECT_ID": "1986-073A",
    "EPOCH": "2025-06-28T14:36:28.319040",
    "MEAN_MOTION": 14.29013171,
    "ECCENTRICITY": 0.0011218,
    "INCLINATION": 98.6746,
    "RA_OF_ASC_NODE": 168.8992,
    "ARG_OF_PERICENTER": 314.8379,
    "MEAN_ANOMALY": 157.2284,
    "EPHEMERIS_TYPE": 0,
    "CLASSIFICATION_TYPE": "U",
    "NORAD_CAT_ID": 16969,
    "ELEMENT_SET_NO": 999,
    "REV_AT_EPOCH": 1891,
    "BSTAR": 4.0121e-05,
    "MEAN_MOTION_DOT": 5.7e-07,
    "MEAN_MOTION_DDOT": 0
  },
  {
    "OBJECT_NAME": "NOAA 11",
    "OBJECT_ID": "1988-089A",
    "EPOCH": "2025-06-28T13:53:52.151712",
    "MEAN_MOTION": 14.15749968,
    "ECCENTRICITY": 0.0010127,
    "INCLINATION": 98.5718,
    "RA_OF_ASC_NODE": 132.7413,
    "ARG_OF_PERICENTER": 229.6801,
    "MEAN_ANOMALY": 130.349,
    "EPHEMERIS_TYPE": 0,
    "CLASSIFICATION_TYPE": "U",
    "NORAD_CAT_ID": 19531,
    "ELEMENT_SET_NO": 999,
    "REV_AT_EPOCH": 89744,
    "BSTAR": 2.6351e-05,
    "MEAN_MOTION_DOT": 1e-07,
    "MEAN_MOTION_DDOT": 0
  },
  {
    "OBJECT_NAME": "NOAA 12",
    "OBJECT_ID": "1991-032A",
    "EPOCH": "2025-06-28T14:09:00.965664",
    "MEAN_MOTION": 14.26614734,
    "ECCENTRICITY": 0.0013339,
    "INCLINATION": 98.5878,
    "RA_OF_ASC_NODE": 168.9715,
    "ARG_OF_PERICENTER": 346.6571,
    "MEAN_ANOMALY": 13.4255,
    "EPHEMERIS_TYPE": 0,
    "CLASSIFICATION_TYPE": "U",
    "NORAD_CAT_ID": 21263,
    "ELEMENT_SET_NO": 999,
    "REV_AT_EPOCH": 77454,
    "BSTAR": 2.4572e-05,
    "MEAN_MOTION_DOT": 1.6e-07,
    "MEAN_MOTION_DDOT": 0
  },
  {
    "OBJECT_NAME": "NOAA 13",
    "OBJECT_ID": "1993-050A",
    "EPOCH": "2025-06-28T11:19:10.391520",
    "MEAN_MOTION": 14.13532647,
    "ECCENTRICITY": 0.0010501,
    "INCLINATION": 98.6571,
    "RA_OF_ASC_NODE": 129.849,
    "ARG_OF_PERICENTER": 61.9629,
    "MEAN_ANOMALY": 298.2605,
    "EPHEMERIS_TYPE": 0,
    "CLASSIFICATION_TYPE": "U",
    "NORAD_CAT_ID": 22739,
    "ELEMENT_SET_NO": 999,
    "REV_AT_EPOCH": 64340,
    "BSTAR": 4.6581e-05,
    "MEAN_MOTION_DOT": 4.5e-07,
    "MEAN_MOTION_DDOT": 0
  },
  {
    "OBJECT_NAME": "NOAA 14",
    "OBJECT_ID": "1994-089A",
    "EPOCH": "2025-06-28T13:09:17.925696",
    "MEAN_MOTION": 14.14588465,
    "ECCENTRICITY": 0.0009984,
    "INCLINATION": 98.4646,
    "RA_OF_ASC_NODE": 161.3889,
    "ARG_OF_PERICENTER": 26.7173,
    "MEAN_ANOMALY": 333.4514,
    "EPHEMERIS_TYPE": 0,
    "CLASSIFICATION_TYPE": "U",
    "NORAD_CAT_ID": 23455,
    "ELEMENT_SET_NO": 999,
    "REV_AT_EPOCH": 57320,
    "BSTAR": 3.1032e-05,
    "MEAN_MOTION_DOT": 1.9e-07,
    "MEAN_MOTION_DDOT": 0
  },
  {
    "OBJECT_NAME": "NOAA 15",
    "OBJECT_ID": "1998-030A",
    "EPOCH": "2025-06-28T19:31:15.794400",
    "MEAN_MOTION": 14.26989073,
    "ECCENTRICITY": 0.0009179,
    "INCLINATION": 98.534,
    "RA_OF_ASC_NODE": 204.4808,
    "ARG_OF_PERICENTER": 307.3121,
    "MEAN_ANOMALY": 52.7223,
    "EPHEMERIS_TYPE": 0,
    "CLASSIFICATION_TYPE": "U",
    "NORAD_CAT_ID": 25338,
    "ELEMENT_SET_NO": 999,
    "REV_AT_EPOCH": 41114,
    "BSTAR": 7.977e-05,
    "MEAN_MOTION_DOT": 1.51e-06,
    "MEAN_MOTION_DDOT": 0
  },
  {
    "OBJECT_NAME": "NOAA 16",
    "OBJECT_ID": "2000-055A",
    "EPOCH": "2025-06-28T14:37:33.230496",
    "MEAN_MOTION": 14.13812304,
    "ECCENTRICITY": 0.0009458,
    "INCLINATION": 98.4872,
    "RA_OF_ASC_NODE": 207.1374,
    "ARG_OF_PERICENTER": 232.4997,
    "MEAN_ANOMALY": 127.5317,
    "EPHEMERIS_TYPE": 0,
    "CLASSIFICATION_TYPE": "U",
    "NORAD_CAT_ID": 26536,
    "ELEMENT_SET_NO": 999,
    "REV_AT_EPOCH": 57376,
    "BSTAR": 4.3439e-05,
    "MEAN_MOTION_DOT": 4.1e-07,
    "MEAN_MOTION_DDOT": 0
  },
  {
    "OBJECT_NAME": "NOAA 17",
    "OBJECT_ID": "2002-032A",
    "EPOCH": "2025-06-28T14:56:59.187264",
    "MEAN_MOTION": 14.26022071,
    "ECCENTRICITY": 0.0010642,
    "INCLINATION": 98.8134,
    "RA_OF_ASC_NODE": 137.2119,
    "ARG_OF_PERICENTER": 299.8631,
    "MEAN_ANOMALY": 60.149,
    "EPHEMERIS_TYPE": 0,
    "CLASSIFICATION_TYPE": "U",
    "NORAD_CAT_ID": 27453,
    "ELEMENT_SET_NO": 999,
    "REV_AT_EPOCH": 19659,
    "BSTAR": 5.0711e-05,
    "MEAN_MOTION_DOT": 7.6e-07,
    "MEAN_MOTION_DDOT": 0
  },
  {
    "OBJECT_NAME": "NOAA 18",
    "OBJECT_ID": "2005-018A",
    "EPOCH": "2025-06-28T19:17:05.551008",
    "MEAN_MOTION": 14.13615361,
    "ECCENTRICITY": 0.0015298,
    "INCLINATION": 98.8424,
    "RA_OF_ASC_NODE": 259.0638,
    "ARG_OF_PERICENTER": 76.6899,
    "MEAN_ANOMALY": 283.5978,
    "EPHEMERIS_TYPE": 0,
    "CLASSIFICATION_TYPE": "U",
    "NORAD_CAT_ID": 28654,
    "ELEMENT_SET_NO": 999,
    "REV_AT_EPOCH": 3646,
    "BSTAR": 5.6568e-05,
    "MEAN_MOTION_DOT": 6.3e-07,
    "MEAN_MOTION_DDOT": 0
  },
  {
    "OBJECT_NAME": "NOAA 19",
    "OBJECT_ID": "2009-005A",
    "EPOCH": "2025-06-28T21:12:48.114144",
    "MEAN_MOTION": 14.13382534,
    "ECCENTRICITY": 0.0012846,
    "INCLINATION": 98.9966,
    "RA_OF_ASC_NODE": 244.6962,
    "ARG_OF_PERICENTER": 312.1729,
    "MEAN_ANOMALY": 47.8351,
    "EPHEMERIS_TYPE": 0,
    "CLASSIFICATION_TYPE": "U",
    "NORAD_CAT_ID": 33591,
    "ELEMENT_SET_NO": 999,
    "REV_AT_EPOCH": 84483,
    "BSTAR": 9.9442e-05,
    "MEAN_MOTION_DOT": 1.41e-06,
    "MEAN_MOTION_DDOT": 0
  },
  {
    "OBJECT_NAME": "SUOMI NPP",
    "OBJECT_ID": "2011-061A",
    "EPOCH": "2025-06-28T20:30:34.501536",
    "MEAN_MOTION": 14.19542531,
    "ECCENTRICITY": 2.98e-05,
    "INCLINATION": 98.758,
    "RA_OF_ASC_NODE": 118.91,
    "ARG_OF_PERICENTER": 231.7755,
    "MEAN_ANOMALY": 128.3394,
    "EPHEMERIS_TYPE": 0,
    "CLASSIFICATION_TYPE": "U",
    "NORAD_CAT_ID": 37849,
    "ELEMENT_SET_NO": 999,
    "REV_AT_EPOCH": 70830,
    "BSTAR": 4.4358e-05,
    "MEAN_MOTION_DOT": 5e-07,
    "MEAN_MOTION_DDOT": 0
  },
  {
    "OBJECT_NAME": "NOAA 20 (JPSS-1)",
    "OBJECT_ID": "2017-073A",
    "EPOCH": "2025-06-28T20:53:12.871104",
    "MEAN_MOTION": 14.19512033,
    "ECCENTRICITY": 7.48e-05,
    "INCLINATION": 98.7418,
    "RA_OF_ASC_NODE": 118.1993,
    "ARG_OF_PERICENTER": 150.0702,
    "MEAN_ANOMALY": 210.0517,
    "EPHEMERIS_TYPE": 0,
    "CLASSIFICATION_TYPE": "U",
    "NORAD_CAT_ID": 43013,
    "ELEMENT_SET_NO": 999,
    "REV_AT_EPOCH": 39434,
    "BSTAR": 3.8637e-05,
    "MEAN_MOTION_DOT": 3.8e-07,
    "MEAN_MOTION_DDOT": 0
  },
  {
    "OBJECT_NAME": "NOAA 21 (JPSS-2)",
    "OBJECT_ID": "2022-150A",
    "EPOCH": "2025-06-28T13:17:50.045280",
    "MEAN_MOTION": 14.19541225,
    "ECCENTRICITY": 0.0002637,
    "INCLINATION": 98.7273,
    "RA_OF_ASC_NODE": 118.1535,
    "ARG_OF_PERICENTER": 105.3542,
    "MEAN_ANOMALY": 254.7925,
    "EPHEMERIS_TYPE": 0,
    "CLASSIFICATION_TYPE": "U",
    "NORAD_CAT_ID": 54234,
    "ELEMENT_SET_NO": 999,
    "REV_AT_EPOCH": 13637,
    "BSTAR": 3.2512e-05,
    "MEAN_MOTION_DOT": 2.5e-07,
    "MEAN_MOTION_DDOT": 0
  }
]